{
  "type": "FeatureCollection",
  "features": [
    {
      "type": "Feature",
      "properties": {
        "norad_id": 43246,
        "name": "BEIDOU-3 M10 (C30)",
        "group": "gnss",
        "lat": 48.881213658166175,
        "lon": 71.14683791585873,
        "alt_km": 21526.529080439777,
        "timestamp": "2025-12-15T22:44:29.170255+00:00",
        "meta_object_name": "BEIDOU-3 M10 (C30)",
        "meta_object_id": "2018-029B",
        "meta_epoch": "2025-12-15T05:50:48.210720",
        "meta_mean_motion": 1.86228929,
        "meta_eccentricity": 0.00041103,
        "meta_inclination": 54.3606,
        "meta_ra_of_asc_node": 306.4069,
        "meta_arg_of_pericenter": 1.1805,
        "meta_mean_anomaly": 358.8077,
        "meta_ephemeris_type": 0,
        "meta_classification_type": "U",
        "meta_norad_cat_id": 43246,
        "meta_element_set_no": 999,
        "meta_rev_at_epoch": 5245,
        "meta_bstar": 0,
        "meta_mean_motion_dot": -9.9e-07,
        "meta_mean_motion_ddot": 0,
        "tle_line1": "1 43246U 18029B   25349.24361355 -.00000099  00000+0  00000+0 0  9998",
        "tle_line2": "2 43246  54.3606 306.4069 0004110   1.1805 358.8077  1.86228929 52455"
      },
      "geometry": {
        "type": "Point",
        "coordinates": [
          71.14683791585873,
          48.881213658166175
        ]
      }
    },
    {
      "type": "Feature",
      "properties": {
        "norad_id": 43286,
        "name": "IRNSS-1I",
        "group": "gnss",
        "lat": 19.72202648023286,
        "lon": 116.95706703351962,
        "alt_km": 35852.743226478655,
        "timestamp": "2025-12-15T22:44:29.170274+00:00",
        "meta_object_name": "IRNSS-1I",
        "meta_object_id": "2018-035A",
        "meta_epoch": "2025-12-14T19:56:38.641056",
        "meta_mean_motion": 1.00272129,
        "meta_eccentricity": 0.00217173,
        "meta_inclination": 29.1546,
        "meta_ra_of_asc_node": 77.0653,
        "meta_arg_of_pericenter": 182.6132,
        "meta_mean_anomaly": 178.227,
        "meta_ephemeris_type": 0,
        "meta_classification_type": "U",
        "meta_norad_cat_id": 43286,
        "meta_element_set_no": 999,
        "meta_rev_at_epoch": 2823,
        "meta_bstar": 0,
        "meta_mean_motion_dot": 8.4e-07,
        "meta_mean_motion_ddot": 0,
        "tle_line1": "1 43286U 18035A   25348.83100279  .00000084  00000+0  00000+0 0  9992",
        "tle_line2": "2 43286  29.1546  77.0653 0021717 182.6132 178.2270  1.00272129 28237"
      },
      "geometry": {
        "type": "Point",
        "coordinates": [
          116.95706703351962,
          19.72202648023286
        ]
      }
    },
    {
      "type": "Feature",
      "properties": {
        "norad_id": 43508,
        "name": "COSMOS 2527 (756)",
        "group": "gnss",
        "lat": -64.8052369403736,
        "lon": -24.29838890693832,
        "alt_km": 19119.28868184267,
        "timestamp": "2025-12-15T22:44:29.170292+00:00",
        "meta_object_name": "COSMOS 2527 (756)",
        "meta_object_id": "2018-053A",
        "meta_epoch": "2025-12-13T17:26:08.291904",
        "meta_mean_motion": 2.13102046,
        "meta_eccentricity": 0.00086624,
        "meta_inclination": 65.4732,
        "meta_ra_of_asc_node": 80.0985,
        "meta_arg_of_pericenter": 225.2125,
        "meta_mean_anomaly": 134.7297,
        "meta_ephemeris_type": 0,
        "meta_classification_type": "U",
        "meta_norad_cat_id": 43508,
        "meta_element_set_no": 999,
        "meta_rev_at_epoch": 5832,
        "meta_bstar": 0,
        "meta_mean_motion_dot": -4.9e-07,
        "meta_mean_motion_ddot": 0,
        "tle_line1": "1 43508U 18053A   25347.72648486 -.00000049  00000+0  00000+0 0  9995",
        "tle_line2": "2 43508  65.4732  80.0985 0008662 225.2125 134.7297  2.13102046 58320"
      },
      "geometry": {
        "type": "Point",
        "coordinates": [
          -24.29838890693832,
          -64.8052369403736
        ]
      }
    },
    {
      "type": "Feature",
      "properties": {
        "norad_id": 43539,
        "name": "BEIDOU-2 IGSO-7 (C16)",
        "group": "gnss",
        "lat": 10.42459351775875,
        "lon": 172.0031903497248,
        "alt_km": 36075.77567079721,
        "timestamp": "2025-12-15T22:44:29.170310+00:00",
        "meta_object_name": "BEIDOU-2 IGSO-7 (C16)",
        "meta_object_id": "2018-057A",
        "meta_epoch": "2025-12-15T07:47:07.120608",
        "meta_mean_motion": 1.00256546,
        "meta_eccentricity": 0.00926218,
        "meta_inclination": 55.1766,
        "meta_ra_of_asc_node": 164.6485,
        "meta_arg_of_pericenter": 235.2644,
        "meta_mean_anomaly": 271.8458,
        "meta_ephemeris_type": 0,
        "meta_classification_type": "U",
        "meta_norad_cat_id": 43539,
        "meta_element_set_no": 999,
        "meta_rev_at_epoch": 2728,
        "meta_bstar": 0,
        "meta_mean_motion_dot": -2.3e-07,
        "meta_mean_motion_ddot": 0,
        "tle_line1": "1 43539U 18057A   25349.32438797 -.00000023  00000+0  00000+0 0  9995",
        "tle_line2": "2 43539  55.1766 164.6485 0092621 235.2644 271.8458  1.00256546 27289"
      },
      "geometry": {
        "type": "Point",
        "coordinates": [
          172.0031903497248,
          10.42459351775875
        ]
      }
    },
    {
      "type": "Feature",
      "properties": {
        "norad_id": 43564,
        "name": "GSAT0221 (GALILEO 25)",
        "group": "gnss",
        "lat": -48.55163111221895,
        "lon": -60.121122848403274,
        "alt_km": 23208.098309585017,
        "timestamp": "2025-12-15T22:44:29.170329+00:00",
        "meta_object_name": "GSAT0221 (GALILEO 25)",
        "meta_object_id": "2018-060A",
        "meta_epoch": "2025-12-13T16:53:40.160256",
        "meta_mean_motion": 1.70475883,
        "meta_eccentricity": 0.00067122,
        "meta_inclination": 57.2276,
        "meta_ra_of_asc_node": 346.7914,
        "meta_arg_of_pericenter": 283.6018,
        "meta_mean_anomaly": 76.3423,
        "meta_ephemeris_type": 0,
        "meta_classification_type": "U",
        "meta_norad_cat_id": 43564,
        "meta_element_set_no": 999,
        "meta_rev_at_epoch": 4600,
        "meta_bstar": 0,
        "meta_mean_motion_dot": -8.5e-07,
        "meta_mean_motion_ddot": 0,
        "tle_line1": "1 43564U 18060A   25347.70393704 -.00000085  00000+0  00000+0 0  9993",
        "tle_line2": "2 43564  57.2276 346.7914 0006712 283.6018  76.3423  1.70475883 46009"
      },
      "geometry": {
        "type": "Point",
        "coordinates": [
          -60.121122848403274,
          -48.55163111221895
        ]
      }
    },
    {
      "type": "Feature",
      "properties": {
        "norad_id": 43565,
        "name": "GSAT0222 (GALILEO 26)",
        "group": "gnss",
        "lat": 14.846836040388377,
        "lon": 156.89970697713972,
        "alt_km": 23224.200861297355,
        "timestamp": "2025-12-15T22:44:29.170347+00:00",
        "meta_object_name": "GSAT0222 (GALILEO 26)",
        "meta_object_id": "2018-060B",
        "meta_epoch": "2025-12-14T12:14:12.279840",
        "meta_mean_motion": 1.70475606,
        "meta_eccentricity": 0.00061133,
        "meta_inclination": 57.2308,
        "meta_ra_of_asc_node": 346.7727,
        "meta_arg_of_pericenter": 264.5011,
        "meta_mean_anomaly": 95.4481,
        "meta_ephemeris_type": 0,
        "meta_classification_type": "U",
        "meta_norad_cat_id": 43565,
        "meta_element_set_no": 999,
        "meta_rev_at_epoch": 4606,
        "meta_bstar": 0,
        "meta_mean_motion_dot": -8.4e-07,
        "meta_mean_motion_ddot": 0,
        "tle_line1": "1 43565U 18060B   25348.50986435 -.00000084  00000+0  00000+0 0  9991",
        "tle_line2": "2 43565  57.2308 346.7727 0006113 264.5011  95.4481  1.70475606 46069"
      },
      "geometry": {
        "type": "Point",
        "coordinates": [
          156.89970697713972,
          14.846836040388377
        ]
      }
    },
    {
      "type": "Feature",
      "properties": {
        "norad_id": 43566,
        "name": "GSAT0219 (GALILEO 23)",
        "group": "gnss",
        "lat": 22.137088168747635,
        "lon": 1.9277778767452491,
        "alt_km": 23222.175972030087,
        "timestamp": "2025-12-15T22:44:29.170364+00:00",
        "meta_object_name": "GSAT0219 (GALILEO 23)",
        "meta_object_id": "2018-060C",
        "meta_epoch": "2025-12-12T23:18:35.949024",
        "meta_mean_motion": 1.70475808,
        "meta_eccentricity": 0.00058128,
        "meta_inclination": 57.2304,
        "meta_ra_of_asc_node": 346.8158,
        "meta_arg_of_pericenter": 287.2893,
        "meta_mean_anomaly": 72.6656,
        "meta_ephemeris_type": 0,
        "meta_classification_type": "U",
        "meta_norad_cat_id": 43566,
        "meta_element_set_no": 999,
        "meta_rev_at_epoch": 4601,
        "meta_bstar": 0,
        "meta_mean_motion_dot": -8.6e-07,
        "meta_mean_motion_ddot": 0,
        "tle_line1": "1 43566U 18060C   25346.97124941 -.00000086  00000+0  00000+0 0  9999",
        "tle_line2": "2 43566  57.2304 346.8158 0005812 287.2893  72.6656  1.70475808 46010"
      },
      "geometry": {
        "type": "Point",
        "coordinates": [
          1.9277778767452491,
          22.137088168747635
        ]
      }
    }
  ]
}